KUIPER-00008            
1 63724U 25088A   25247.20944421  .00008622  00000+0  72405-3 0  9999
2 63724  51.8892 217.2067 0010714 187.7434 172.3373 14.98989616 20086
KUIPER-00009            
1 63725U 25088B   25247.19829931  .00003749  00000+0  52060-3 0  9996
2 63725  51.9015 211.2671 0012217 203.6653 156.3749 14.79902488 20160
KUIPER-00010            
1 63726U 25088C   25247.16465526  .00025080  00000+0  68613-3 0  9993
2 63726  51.8623 199.5067 0008627 203.4388 156.6206 15.37169777 19941
KUIPER-00011            
1 63727U 25088D   25247.25003472 -.00419012  00000+0 -20205-1 0  9999
2 63727  51.8688 200.4422 0009418 204.2932 252.2497 15.20105477  5638
KUIPER-00012            
1 63728U 25088E   25247.25003472 -.00675417  00000+0 -20837-1 0  9994
2 63728  51.8564 199.3821 0010254 210.6054  72.9726 15.35316591  4488
KUIPER-00013            
1 63729U 25088F   25247.25003472  .00007786  00000+0  10504-2 0  9992
2 63729  51.8999 212.5017 0008450 141.4085 141.9383 14.79868673  5449
KUIPER-00014            
1 63730U 25088G   25247.26285019 -.00019724  00000+0 -25604-2 0  9998
2 63730  51.9005 213.4087 0008266 196.1587 163.9113 14.79991758 19762
KUIPER-00015            
1 63731U 25088H   25247.14335500  .00001760  00000+0  25216-3 0  9996
2 63731  51.8990 226.0992 0010314 179.1952 180.9030 14.81266337 20034
