<?xml version="1.0" encoding="UTF-8"?>
<ndm xmlns:xsi="http://www.w3.org/2001/XMLSchema-instance" xsi:noNamespaceSchemaLocation="https://sanaregistry.org/r/ndmxml_unqualified/ndmxml-2.0.0-master-2.0.xsd">
<omm id="CCSDS_OMM_VERS" version="2.0">
<header><CREATION_DATE/><ORIGINATOR/></header><body><segment><metadata><OBJECT_NAME>KUIPER-00008</OBJECT_NAME><OBJECT_ID>2025-088A</OBJECT_ID><CENTER_NAME>EARTH</CENTER_NAME><REF_FRAME>TEME</REF_FRAME><TIME_SYSTEM>UTC</TIME_SYSTEM><MEAN_ELEMENT_THEORY>SGP4</MEAN_ELEMENT_THEORY></metadata><data><meanElements><EPOCH>2025-09-04T05:01:35.979744</EPOCH><MEAN_MOTION>14.98989616</MEAN_MOTION><ECCENTRICITY>.00107142</ECCENTRICITY><INCLINATION>51.8892</INCLINATION><RA_OF_ASC_NODE>217.2067</RA_OF_ASC_NODE><ARG_OF_PERICENTER>187.7434</ARG_OF_PERICENTER><MEAN_ANOMALY>172.3373</MEAN_ANOMALY></meanElements><tleParameters><EPHEMERIS_TYPE>0</EPHEMERIS_TYPE><CLASSIFICATION_TYPE>U</CLASSIFICATION_TYPE><NORAD_CAT_ID>63724</NORAD_CAT_ID><ELEMENT_SET_NO>999</ELEMENT_SET_NO><REV_AT_EPOCH>2008</REV_AT_EPOCH><BSTAR>.72404956E-3</BSTAR><MEAN_MOTION_DOT>.8622E-4</MEAN_MOTION_DOT><MEAN_MOTION_DDOT>0</MEAN_MOTION_DDOT></tleParameters></data></segment></body></omm>
<omm id="CCSDS_OMM_VERS" version="2.0">
<header><CREATION_DATE/><ORIGINATOR/></header><body><segment><metadata><OBJECT_NAME>KUIPER-00009</OBJECT_NAME><OBJECT_ID>2025-088B</OBJECT_ID><CENTER_NAME>EARTH</CENTER_NAME><REF_FRAME>TEME</REF_FRAME><TIME_SYSTEM>UTC</TIME_SYSTEM><MEAN_ELEMENT_THEORY>SGP4</MEAN_ELEMENT_THEORY></metadata><data><meanElements><EPOCH>2025-09-04T04:45:33.060384</EPOCH><MEAN_MOTION>14.79902488</MEAN_MOTION><ECCENTRICITY>.00122176</ECCENTRICITY><INCLINATION>51.9015</INCLINATION><RA_OF_ASC_NODE>211.2671</RA_OF_ASC_NODE><ARG_OF_PERICENTER>203.6653</ARG_OF_PERICENTER><MEAN_ANOMALY>156.3749</MEAN_ANOMALY></meanElements><tleParameters><EPHEMERIS_TYPE>0</EPHEMERIS_TYPE><CLASSIFICATION_TYPE>U</CLASSIFICATION_TYPE><NORAD_CAT_ID>63725</NORAD_CAT_ID><ELEMENT_SET_NO>999</ELEMENT_SET_NO><REV_AT_EPOCH>2016</REV_AT_EPOCH><BSTAR>.52060249E-3</BSTAR><MEAN_MOTION_DOT>.3749E-4</MEAN_MOTION_DOT><MEAN_MOTION_DDOT>0</MEAN_MOTION_DDOT></tleParameters></data></segment></body></omm>
<omm id="CCSDS_OMM_VERS" version="2.0">
<header><CREATION_DATE/><ORIGINATOR/></header><body><segment><metadata><OBJECT_NAME>KUIPER-00010</OBJECT_NAME><OBJECT_ID>2025-088C</OBJECT_ID><CENTER_NAME>EARTH</CENTER_NAME><REF_FRAME>TEME</REF_FRAME><TIME_SYSTEM>UTC</TIME_SYSTEM><MEAN_ELEMENT_THEORY>SGP4</MEAN_ELEMENT_THEORY></metadata><data><meanElements><EPOCH>2025-09-04T03:57:06.214464</EPOCH><MEAN_MOTION>15.37169777</MEAN_MOTION><ECCENTRICITY>.00086278</ECCENTRICITY><INCLINATION>51.8623</INCLINATION><RA_OF_ASC_NODE>199.5067</RA_OF_ASC_NODE><ARG_OF_PERICENTER>203.4388</ARG_OF_PERICENTER><MEAN_ANOMALY>156.6206</MEAN_ANOMALY></meanElements><tleParameters><EPHEMERIS_TYPE>0</EPHEMERIS_TYPE><CLASSIFICATION_TYPE>U</CLASSIFICATION_TYPE><NORAD_CAT_ID>63726</NORAD_CAT_ID><ELEMENT_SET_NO>999</ELEMENT_SET_NO><REV_AT_EPOCH>1994</REV_AT_EPOCH><BSTAR>.68613497E-3</BSTAR><MEAN_MOTION_DOT>.2508E-3</MEAN_MOTION_DOT><MEAN_MOTION_DDOT>0</MEAN_MOTION_DDOT></tleParameters></data></segment></body></omm>
<omm id="CCSDS_OMM_VERS" version="2.0">
<header><CREATION_DATE/><ORIGINATOR/></header><body><segment><metadata><OBJECT_NAME>KUIPER-00011</OBJECT_NAME><OBJECT_ID>2025-088D</OBJECT_ID><CENTER_NAME>EARTH</CENTER_NAME><REF_FRAME>TEME</REF_FRAME><TIME_SYSTEM>UTC</TIME_SYSTEM><MEAN_ELEMENT_THEORY>SGP4</MEAN_ELEMENT_THEORY></metadata><data><meanElements><EPOCH>2025-09-04T06:00:02.999808</EPOCH><MEAN_MOTION>15.20105477</MEAN_MOTION><ECCENTRICITY>.0009418</ECCENTRICITY><INCLINATION>51.8688</INCLINATION><RA_OF_ASC_NODE>200.4422</RA_OF_ASC_NODE><ARG_OF_PERICENTER>204.2932</ARG_OF_PERICENTER><MEAN_ANOMALY>252.2497</MEAN_ANOMALY></meanElements><tleParameters><EPHEMERIS_TYPE>0</EPHEMERIS_TYPE><CLASSIFICATION_TYPE>U</CLASSIFICATION_TYPE><NORAD_CAT_ID>63727</NORAD_CAT_ID><ELEMENT_SET_NO>999</ELEMENT_SET_NO><REV_AT_EPOCH>563</REV_AT_EPOCH><BSTAR>-.20205461E-1</BSTAR><MEAN_MOTION_DOT>-.419012E-2</MEAN_MOTION_DOT><MEAN_MOTION_DDOT>0</MEAN_MOTION_DDOT></tleParameters></data></segment></body></omm>
<omm id="CCSDS_OMM_VERS" version="2.0">
<header><CREATION_DATE/><ORIGINATOR/></header><body><segment><metadata><OBJECT_NAME>KUIPER-00012</OBJECT_NAME><OBJECT_ID>2025-088E</OBJECT_ID><CENTER_NAME>EARTH</CENTER_NAME><REF_FRAME>TEME</REF_FRAME><TIME_SYSTEM>UTC</TIME_SYSTEM><MEAN_ELEMENT_THEORY>SGP4</MEAN_ELEMENT_THEORY></metadata><data><meanElements><EPOCH>2025-09-04T06:00:02.999808</EPOCH><MEAN_MOTION>15.35316591</MEAN_MOTION><ECCENTRICITY>.00102544</ECCENTRICITY><INCLINATION>51.8564</INCLINATION><RA_OF_ASC_NODE>199.3821</RA_OF_ASC_NODE><ARG_OF_PERICENTER>210.6054</ARG_OF_PERICENTER><MEAN_ANOMALY>72.9726</MEAN_ANOMALY></meanElements><tleParameters><EPHEMERIS_TYPE>0</EPHEMERIS_TYPE><CLASSIFICATION_TYPE>U</CLASSIFICATION_TYPE><NORAD_CAT_ID>63728</NORAD_CAT_ID><ELEMENT_SET_NO>999</ELEMENT_SET_NO><REV_AT_EPOCH>448</REV_AT_EPOCH><BSTAR>-.20837216E-1</BSTAR><MEAN_MOTION_DOT>-.675417E-2</MEAN_MOTION_DOT><MEAN_MOTION_DDOT>0</MEAN_MOTION_DDOT></tleParameters></data></segment></body></omm>
<omm id="CCSDS_OMM_VERS" version="2.0">
<header><CREATION_DATE/><ORIGINATOR/></header><body><segment><metadata><OBJECT_NAME>KUIPER-00013</OBJECT_NAME><OBJECT_ID>2025-088F</OBJECT_ID><CENTER_NAME>EARTH</CENTER_NAME><REF_FRAME>TEME</REF_FRAME><TIME_SYSTEM>UTC</TIME_SYSTEM><MEAN_ELEMENT_THEORY>SGP4</MEAN_ELEMENT_THEORY></metadata><data><meanElements><EPOCH>2025-09-04T06:00:02.999808</EPOCH><MEAN_MOTION>14.79868673</MEAN_MOTION><ECCENTRICITY>.00084503</ECCENTRICITY><INCLINATION>51.8999</INCLINATION><RA_OF_ASC_NODE>212.5017</RA_OF_ASC_NODE><ARG_OF_PERICENTER>141.4085</ARG_OF_PERICENTER><MEAN_ANOMALY>141.9383</MEAN_ANOMALY></meanElements><tleParameters><EPHEMERIS_TYPE>0</EPHEMERIS_TYPE><CLASSIFICATION_TYPE>U</CLASSIFICATION_TYPE><NORAD_CAT_ID>63729</NORAD_CAT_ID><ELEMENT_SET_NO>999</ELEMENT_SET_NO><REV_AT_EPOCH>544</REV_AT_EPOCH><BSTAR>.10504317E-2</BSTAR><MEAN_MOTION_DOT>.7786E-4</MEAN_MOTION_DOT><MEAN_MOTION_DDOT>0</MEAN_MOTION_DDOT></tleParameters></data></segment></body></omm>
<omm id="CCSDS_OMM_VERS" version="2.0">
<header><CREATION_DATE/><ORIGINATOR/></header><body><segment><metadata><OBJECT_NAME>KUIPER-00014</OBJECT_NAME><OBJECT_ID>2025-088G</OBJECT_ID><CENTER_NAME>EARTH</CENTER_NAME><REF_FRAME>TEME</REF_FRAME><TIME_SYSTEM>UTC</TIME_SYSTEM><MEAN_ELEMENT_THEORY>SGP4</MEAN_ELEMENT_THEORY></metadata><data><meanElements><EPOCH>2025-09-04T06:18:30.256416</EPOCH><MEAN_MOTION>14.79991758</MEAN_MOTION><ECCENTRICITY>.00082662</ECCENTRICITY><INCLINATION>51.9005</INCLINATION><RA_OF_ASC_NODE>213.4087</RA_OF_ASC_NODE><ARG_OF_PERICENTER>196.1587</ARG_OF_PERICENTER><MEAN_ANOMALY>163.9113</MEAN_ANOMALY></meanElements><tleParameters><EPHEMERIS_TYPE>0</EPHEMERIS_TYPE><CLASSIFICATION_TYPE>U</CLASSIFICATION_TYPE><NORAD_CAT_ID>63730</NORAD_CAT_ID><ELEMENT_SET_NO>999</ELEMENT_SET_NO><REV_AT_EPOCH>1976</REV_AT_EPOCH><BSTAR>-.25604147E-2</BSTAR><MEAN_MOTION_DOT>-.19724E-3</MEAN_MOTION_DOT><MEAN_MOTION_DDOT>0</MEAN_MOTION_DDOT></tleParameters></data></segment></body></omm>
<omm id="CCSDS_OMM_VERS" version="2.0">
<header><CREATION_DATE/><ORIGINATOR/></header><body><segment><metadata><OBJECT_NAME>KUIPER-00015</OBJECT_NAME><OBJECT_ID>2025-088H</OBJECT_ID><CENTER_NAME>EARTH</CENTER_NAME><REF_FRAME>TEME</REF_FRAME><TIME_SYSTEM>UTC</TIME_SYSTEM><MEAN_ELEMENT_THEORY>SGP4</MEAN_ELEMENT_THEORY></metadata><data><meanElements><EPOCH>2025-09-04T03:26:25.872000</EPOCH><MEAN_MOTION>14.81266337</MEAN_MOTION><ECCENTRICITY>.00103146</ECCENTRICITY><INCLINATION>51.8990</INCLINATION><RA_OF_ASC_NODE>226.0992</RA_OF_ASC_NODE><ARG_OF_PERICENTER>179.1952</ARG_OF_PERICENTER><MEAN_ANOMALY>180.9030</MEAN_ANOMALY></meanElements><tleParameters><EPHEMERIS_TYPE>0</EPHEMERIS_TYPE><CLASSIFICATION_TYPE>U</CLASSIFICATION_TYPE><NORAD_CAT_ID>63731</NORAD_CAT_ID><ELEMENT_SET_NO>999</ELEMENT_SET_NO><REV_AT_EPOCH>2003</REV_AT_EPOCH><BSTAR>.25215542E-3</BSTAR><MEAN_MOTION_DOT>.176E-4</MEAN_MOTION_DOT><MEAN_MOTION_DDOT>0</MEAN_MOTION_DDOT></tleParameters></data></segment></body></omm>

</ndm>
